{
  "type": "FeatureCollection",
  "features": [
    {
      "type": "Feature",
      "properties": {
        "norad_id": 33376,
        "name": "GALAXY 19 (G-19)",
        "group": "intelsat",
        "lat": -0.025616620697797955,
        "lon": -84.51319438835182,
        "alt_km": 35775.516353878265,
        "timestamp": "2025-12-20T18:51:31.385499+00:00",
        "meta_object_name": "GALAXY 19 (G-19)",
        "meta_object_id": "2008-045A",
        "meta_epoch": "2025-12-20T11:54:28.451232",
        "meta_mean_motion": 1.00271451,
        "meta_eccentricity": 0.00025199,
        "meta_inclination": 0.0143,
        "meta_ra_of_asc_node": 306.9474,
        "meta_arg_of_pericenter": 327.2001,
        "meta_mean_anomaly": 256.8006,
        "meta_ephemeris_type": 0,
        "meta_classification_type": "U",
        "meta_norad_cat_id": 33376,
        "meta_element_set_no": 999,
        "meta_rev_at_epoch": 6311,
        "meta_bstar": 0,
        "meta_mean_motion_dot": -1.15e-06,
        "meta_mean_motion_ddot": 0,
        "tle_line1": "1 33376U 08045A   25354.49616263 -.00000115  00000+0  00000+0 0  9991",
        "tle_line2": "2 33376   0.0143 306.9474 0002519 327.2001 256.8006  1.00271451 63116"
      },
      "geometry": {
        "type": "Point",
        "coordinates": [
          -84.51319438835182,
          -0.025616620697797955
        ]
      }
    },
    {
      "type": "Feature",
      "properties": {
        "norad_id": 35493,
        "name": "FM-5",
        "group": "intelsat",
        "lat": -0.018492362242864074,
        "lon": -73.65482849593108,
        "alt_km": 35795.1712268284,
        "timestamp": "2025-12-20T18:51:31.385511+00:00",
        "meta_object_name": "FM-5",
        "meta_object_id": "2009-034A",
        "meta_epoch": "2025-12-20T11:23:10.391712",
        "meta_mean_motion": 1.00258882,
        "meta_eccentricity": 0.0001816,
        "meta_inclination": 0.0239,
        "meta_ra_of_asc_node": 289.6726,
        "meta_arg_of_pericenter": 221.3816,
        "meta_mean_anomaly": 22.9059,
        "meta_ephemeris_type": 0,
        "meta_classification_type": "U",
        "meta_norad_cat_id": 35493,
        "meta_element_set_no": 999,
        "meta_rev_at_epoch": 4485,
        "meta_bstar": 0,
        "meta_mean_motion_dot": -1.75e-06,
        "meta_mean_motion_ddot": 0,
        "tle_line1": "1 35493U 09034A   25354.47442583 -.00000175  00000+0  00000+0 0  9998",
        "tle_line2": "2 35493   0.0239 289.6726 0001816 221.3816  22.9059  1.00258882 44851"
      },
      "geometry": {
        "type": "Point",
        "coordinates": [
          -73.65482849593108,
          -0.018492362242864074
        ]
      }
    },
    {
      "type": "Feature",
      "properties": {
        "norad_id": 36097,
        "name": "INTELSAT 14 (IS-14)",
        "group": "intelsat",
        "lat": -0.02145270504477111,
        "lon": -32.48408560104047,
        "alt_km": 35779.266323202995,
        "timestamp": "2025-12-20T18:51:31.385522+00:00",
        "meta_object_name": "INTELSAT 14 (IS-14)",
        "meta_object_id": "2009-064A",
        "meta_epoch": "2025-12-20T11:18:04.696416",
        "meta_mean_motion": 1.00270925,
        "meta_eccentricity": 0.00024525,
        "meta_inclination": 0.011,
        "meta_ra_of_asc_node": 4.339,
        "meta_arg_of_pericenter": 276.3609,
        "meta_mean_anomaly": 293.1341,
        "meta_ephemeris_type": 0,
        "meta_classification_type": "U",
        "meta_norad_cat_id": 36097,
        "meta_element_set_no": 999,
        "meta_rev_at_epoch": 5881,
        "meta_bstar": 0,
        "meta_mean_motion_dot": -2.5e-06,
        "meta_mean_motion_ddot": 0,
        "tle_line1": "1 36097U 09064A   25354.47088769 -.00000250  00000+0  00000+0 0  9998",
        "tle_line2": "2 36097   0.0110   4.3390 0002452 276.3609 293.1341  1.00270925 58815"
      },
      "geometry": {
        "type": "Point",
        "coordinates": [
          -32.48408560104047,
          -0.02145270504477111
        ]
      }
    },
    {
      "type": "Feature",
      "properties": {
        "norad_id": 36106,
        "name": "INTELSAT 15 (IS-15)",
        "group": "intelsat",
        "lat": 0.03323996009670001,
        "lon": 97.64945825643457,
        "alt_km": 35795.0677863775,
        "timestamp": "2025-12-20T18:51:31.385534+00:00",
        "meta_object_name": "INTELSAT 15 (IS-15)",
        "meta_object_id": "2009-067A",
        "meta_epoch": "2025-12-20T08:29:50.808192",
        "meta_mean_motion": 1.00272009,
        "meta_eccentricity": 0.00021321,
        "meta_inclination": 0.0088,
        "meta_ra_of_asc_node": 26.4946,
        "meta_arg_of_pericenter": 253.5637,
        "meta_mean_anomaly": 21.7545,
        "meta_ephemeris_type": 0,
        "meta_classification_type": "U",
        "meta_norad_cat_id": 36106,
        "meta_element_set_no": 999,
        "meta_rev_at_epoch": 3943,
        "meta_bstar": 0,
        "meta_mean_motion_dot": -1.62e-06,
        "meta_mean_motion_ddot": 0,
        "tle_line1": "1 36106U 09067A   25354.35406028 -.00000162  00000+0  00000+0 0  9993",
        "tle_line2": "2 36106   0.0088  26.4946 0002132 253.5637  21.7545  1.00272009 39438"
      },
      "geometry": {
        "type": "Point",
        "coordinates": [
          97.64945825643457,
          0.03323996009670001
        ]
      }
    },
    {
      "type": "Feature",
      "properties": {
        "norad_id": 36131,
        "name": "DIRECTV 12",
        "group": "intelsat",
        "lat": -0.024578089741837405,
        "lon": -90.22349050874658,
        "alt_km": 35783.861069259656,
        "timestamp": "2025-12-20T18:51:31.385545+00:00",
        "meta_object_name": "DIRECTV 12",
        "meta_object_id": "2009-075A",
        "meta_epoch": "2025-12-20T12:06:43.360992",
        "meta_mean_motion": 1.00275526,
        "meta_eccentricity": 5.064e-05,
        "meta_inclination": 0.0134,
        "meta_ra_of_asc_node": 57.4464,
        "meta_arg_of_pericenter": 268.8941,
        "meta_mean_anomaly": 201.9691,
        "meta_ephemeris_type": 0,
        "meta_classification_type": "U",
        "meta_norad_cat_id": 36131,
        "meta_element_set_no": 999,
        "meta_rev_at_epoch": 4476,
        "meta_bstar": 0,
        "meta_mean_motion_dot": -8.1e-07,
        "meta_mean_motion_ddot": 0,
        "tle_line1": "1 36131U 09075A   25354.50466853 -.00000081  00000+0  00000+0 0  9999",
        "tle_line2": "2 36131   0.0134  57.4464 0000506 268.8941 201.9691  1.00275526 44760"
      },
      "geometry": {
        "type": "Point",
        "coordinates": [
          -90.22349050874658,
          -0.024578089741837405
        ]
      }
    },
    {
      "type": "Feature",
      "properties": {
        "norad_id": 36397,
        "name": "INTELSAT 16 (IS-16)",
        "group": "intelsat",
        "lat": -0.030695058256028498,
        "lon": -63.684124298899555,
        "alt_km": 35776.0973824644,
        "timestamp": "2025-12-20T18:51:31.385557+00:00",
        "meta_object_name": "INTELSAT 16 (IS-16)",
        "meta_object_id": "2010-006A",
        "meta_epoch": "2025-12-20T11:26:34.478880",
        "meta_mean_motion": 1.00277419,
        "meta_eccentricity": 0.00021478,
        "meta_inclination": 0.0116,
        "meta_ra_of_asc_node": 344.1839,
        "meta_arg_of_pericenter": 290.2193,
        "meta_mean_anomaly": 270.3649,
        "meta_ephemeris_type": 0,
        "meta_classification_type": "U",
        "meta_norad_cat_id": 36397,
        "meta_element_set_no": 999,
        "meta_rev_at_epoch": 5786,
        "meta_bstar": 0,
        "meta_mean_motion_dot": -2.21e-06,
        "meta_mean_motion_ddot": 0,
        "tle_line1": "1 36397U 10006A   25354.47678795 -.00000221  00000+0  00000+0 0  9991",
        "tle_line2": "2 36397   0.0116 344.1839 0002147 290.2193 270.3649  1.00277419 57868"
      },
      "geometry": {
        "type": "Point",
        "coordinates": [
          -63.684124298899555,
          -0.030695058256028498
        ]
      }
    },
    {
      "type": "Feature",
      "properties": {
        "norad_id": 37185,
        "name": "XM-5",
        "group": "intelsat",
        "lat": -0.03817286379273656,
        "lon": -102.66231455801875,
        "alt_km": 35784.850819326384,
        "timestamp": "2025-12-20T18:51:31.385568+00:00",
        "meta_object_name": "XM-5",
        "meta_object_id": "2010-053A",
        "meta_epoch": "2025-12-20T11:05:14.664192",
        "meta_mean_motion": 1.00280251,
        "meta_eccentricity": 0.00020369,
        "meta_inclination": 0.0654,
        "meta_ra_of_asc_node": 270.4731,
        "meta_arg_of_pericenter": 249.3201,
        "meta_mean_anomaly": 340.6321,
        "meta_ephemeris_type": 0,
        "meta_classification_type": "U",
        "meta_norad_cat_id": 37185,
        "meta_element_set_no": 999,
        "meta_rev_at_epoch": 5569,
        "meta_bstar": 0,
        "meta_mean_motion_dot": -1e-08,
        "meta_mean_motion_ddot": 0,
        "tle_line1": "1 37185U 10053A   25354.46197528 -.00000001  00000+0  00000+0 0  9994",
        "tle_line2": "2 37185   0.0654 270.4731 0002036 249.3201 340.6321  1.00280251 55690"
      },
      "geometry": {
        "type": "Point",
        "coordinates": [
          -102.66231455801875,
          -0.03817286379273656
        ]
      }
    }
  ]
}